{
  "type": "FeatureCollection",
  "features": [
    {
      "type": "Feature",
      "properties": {
        "norad_id": 66913,
        "name": "2025-284A",
        "group": "last-30-days",
        "lat": -66.40596759559996,
        "lon": 99.75051316603235,
        "alt_km": 533.7825590340199,
        "timestamp": "2025-12-18T10:51:24.516367+00:00",
        "meta_object_name": "2025-284A",
        "meta_object_id": "2025-284A",
        "meta_epoch": "2025-12-17T20:54:23.899680",
        "meta_mean_motion": 15.16454053,
        "meta_eccentricity": 0.00203476,
        "meta_inclination": 80.4052,
        "meta_ra_of_asc_node": 123.2713,
        "meta_arg_of_pericenter": 157.7756,
        "meta_mean_anomaly": 202.4357,
        "meta_ephemeris_type": 0,
        "meta_classification_type": "U",
        "meta_norad_cat_id": 66913,
        "meta_element_set_no": 999,
        "meta_rev_at_epoch": 190,
        "meta_bstar": 0.00041872637,
        "meta_mean_motion_dot": 8.209e-05,
        "meta_mean_motion_ddot": 0,
        "tle_line1": "1 66913U 25284A   25351.87110995  .00008209  00000+0  41873-3 0  9996",
        "tle_line2": "2 66913  80.4052 123.2713 0020347 157.7756 202.4357 15.16454053  1906"
      },
      "geometry": {
        "type": "Point",
        "coordinates": [
          99.75051316603235,
          -66.40596759559996
        ]
      }
    },
    {
      "type": "Feature",
      "properties": {
        "norad_id": 66914,
        "name": "2025-284B",
        "group": "last-30-days",
        "lat": -37.38745260222475,
        "lon": 115.09649010059917,
        "alt_km": 515.5920054699654,
        "timestamp": "2025-12-18T10:51:24.516377+00:00",
        "meta_object_name": "2025-284B",
        "meta_object_id": "2025-284B",
        "meta_epoch": "2025-12-16T06:51:11.417184",
        "meta_mean_motion": 15.18985981,
        "meta_eccentricity": 0.00081793,
        "meta_inclination": 80.4045,
        "meta_ra_of_asc_node": 125.2713,
        "meta_arg_of_pericenter": 234.9626,
        "meta_mean_anomaly": 125.0834,
        "meta_ephemeris_type": 0,
        "meta_classification_type": "U",
        "meta_norad_cat_id": 66914,
        "meta_element_set_no": 999,
        "meta_rev_at_epoch": 166,
        "meta_bstar": 0.00038444995,
        "meta_mean_motion_dot": 8.068e-05,
        "meta_mean_motion_ddot": 0,
        "tle_line1": "1 66914U 25284B   25350.28554881  .00008068  00000+0  38445-3 0  9991",
        "tle_line2": "2 66914  80.4045 125.2713 0008179 234.9626 125.0834 15.18985981  1668"
      },
      "geometry": {
        "type": "Point",
        "coordinates": [
          115.09649010059917,
          -37.38745260222475
        ]
      }
    },
    {
      "type": "Feature",
      "properties": {
        "norad_id": 66915,
        "name": "HULIANWANG DIGUI-105",
        "group": "last-30-days",
        "lat": -49.74364534289525,
        "lon": 11.53829318155854,
        "alt_km": 880.2368060779963,
        "timestamp": "2025-12-18T10:51:24.516387+00:00",
        "meta_object_name": "HULIANWANG DIGUI-105",
        "meta_object_id": "2025-285A",
        "meta_epoch": "2025-12-17T23:18:01.727712",
        "meta_mean_motion": 14.03717157,
        "meta_eccentricity": 0.00080103,
        "meta_inclination": 50.0058,
        "meta_ra_of_asc_node": 95.9708,
        "meta_arg_of_pericenter": 300.1774,
        "meta_mean_anomaly": 59.8336,
        "meta_ephemeris_type": 0,
        "meta_classification_type": "U",
        "meta_norad_cat_id": 66915,
        "meta_element_set_no": 999,
        "meta_rev_at_epoch": 164,
        "meta_bstar": 8.6910703e-05,
        "meta_mean_motion_dot": -1.4e-07,
        "meta_mean_motion_ddot": 0,
        "tle_line1": "1 66915U 25285A   25351.97085333 -.00000014  00000+0  86911-4 0  9997",
        "tle_line2": "2 66915  50.0058  95.9708 0008010 300.1774  59.8336 14.03717157  1647"
      },
      "geometry": {
        "type": "Point",
        "coordinates": [
          11.53829318155854,
          -49.74364534289525
        ]
      }
    },
    {
      "type": "Feature",
      "properties": {
        "norad_id": 66916,
        "name": "HULIANWANG DIGUI-106",
        "group": "last-30-days",
        "lat": -46.16027513359001,
        "lon": 33.03753555965039,
        "alt_km": 880.4456437837471,
        "timestamp": "2025-12-18T10:51:24.516398+00:00",
        "meta_object_name": "HULIANWANG DIGUI-106",
        "meta_object_id": "2025-285B",
        "meta_epoch": "2025-12-17T23:13:48.714816",
        "meta_mean_motion": 14.03701693,
        "meta_eccentricity": 0.00067872,
        "meta_inclination": 50.0057,
        "meta_ra_of_asc_node": 95.9568,
        "meta_arg_of_pericenter": 293.4872,
        "meta_mean_anomaly": 66.5319,
        "meta_ephemeris_type": 0,
        "meta_classification_type": "U",
        "meta_norad_cat_id": 66916,
        "meta_element_set_no": 999,
        "meta_rev_at_epoch": 164,
        "meta_bstar": -2.0652417e-05,
        "meta_mean_motion_dot": -1.84e-06,
        "meta_mean_motion_ddot": 0,
        "tle_line1": "1 66916U 25285B   25351.96792494 -.00000184  00000+0 -20652-4 0  9999",
        "tle_line2": "2 66916  50.0057  95.9568 0006787 293.4872  66.5319 14.03701693  1647"
      },
      "geometry": {
        "type": "Point",
        "coordinates": [
          33.03753555965039,
          -46.16027513359001
        ]
      }
    },
    {
      "type": "Feature",
      "properties": {
        "norad_id": 66917,
        "name": "HULIANWANG DIGUI-107",
        "group": "last-30-days",
        "lat": -41.899682293908924,
        "lon": 45.08388664420977,
        "alt_km": 879.9143457285554,
        "timestamp": "2025-12-18T10:51:24.516409+00:00",
        "meta_object_name": "HULIANWANG DIGUI-107",
        "meta_object_id": "2025-285C",
        "meta_epoch": "2025-12-17T23:11:02.316192",
        "meta_mean_motion": 14.03661904,
        "meta_eccentricity": 0.00074668,
        "meta_inclination": 50.0022,
        "meta_ra_of_asc_node": 95.9408,
        "meta_arg_of_pericenter": 302.8852,
        "meta_mean_anomaly": 57.1333,
        "meta_ephemeris_type": 0,
        "meta_classification_type": "U",
        "meta_norad_cat_id": 66917,
        "meta_element_set_no": 999,
        "meta_rev_at_epoch": 164,
        "meta_bstar": -2.0543665e-05,
        "meta_mean_motion_dot": -1.84e-06,
        "meta_mean_motion_ddot": 0,
        "tle_line1": "1 66917U 25285C   25351.96599903 -.00000184  00000+0 -20544-4 0  9990",
        "tle_line2": "2 66917  50.0022  95.9408 0007466 302.8852  57.1333 14.03661904  1643"
      },
      "geometry": {
        "type": "Point",
        "coordinates": [
          45.08388664420977,
          -41.899682293908924
        ]
      }
    },
    {
      "type": "Feature",
      "properties": {
        "norad_id": 66918,
        "name": "HULIANWANG DIGUI-108",
        "group": "last-30-days",
        "lat": -39.547292180581756,
        "lon": 50.071825862959415,
        "alt_km": 880.6411557190258,
        "timestamp": "2025-12-18T10:51:24.516419+00:00",
        "meta_object_name": "HULIANWANG DIGUI-108",
        "meta_object_id": "2025-285D",
        "meta_epoch": "2025-12-17T23:09:44.587296",
        "meta_mean_motion": 14.03600924,
        "meta_eccentricity": 0.00065951,
        "meta_inclination": 50.0044,
        "meta_ra_of_asc_node": 95.9395,
        "meta_arg_of_pericenter": 297.4721,
        "meta_mean_anomaly": 62.5513,
        "meta_ephemeris_type": 0,
        "meta_classification_type": "U",
        "meta_norad_cat_id": 66918,
        "meta_element_set_no": 999,
        "meta_rev_at_epoch": 164,
        "meta_bstar": -1.1924053e-05,
        "meta_mean_motion_dot": -1.7e-06,
        "meta_mean_motion_ddot": 0,
        "tle_line1": "1 66918U 25285D   25351.96509939 -.00000170  00000+0 -11924-4 0  9998",
        "tle_line2": "2 66918  50.0044  95.9395 0006595 297.4721  62.5513 14.03600924  1644"
      },
      "geometry": {
        "type": "Point",
        "coordinates": [
          50.071825862959415,
          -39.547292180581756
        ]
      }
    },
    {
      "type": "Feature",
      "properties": {
        "norad_id": 66919,
        "name": "HULIANWANG DIGUI-109",
        "group": "last-30-days",
        "lat": -36.001939094104934,
        "lon": 56.365992537964885,
        "alt_km": 879.0885804748323,
        "timestamp": "2025-12-18T10:51:24.516428+00:00",
        "meta_object_name": "HULIANWANG DIGUI-109",
        "meta_object_id": "2025-285E",
        "meta_epoch": "2025-12-17T23:08:03.564960",
        "meta_mean_motion": 14.03724886,
        "meta_eccentricity": 0.00078731,
        "meta_inclination": 50.0079,
        "meta_ra_of_asc_node": 95.9375,
        "meta_arg_of_pericenter": 309.9709,
        "meta_mean_anomaly": 50.0504,
        "meta_ephemeris_type": 0,
        "meta_classification_type": "U",
        "meta_norad_cat_id": 66919,
        "meta_element_set_no": 999,
        "meta_rev_at_epoch": 164,
        "meta_bstar": -1.9850237e-05,
        "meta_mean_motion_dot": -1.83e-06,
        "meta_mean_motion_ddot": 0,
        "tle_line1": "1 66919U 25285E   25351.96393015 -.00000183  00000+0 -19850-4 0  9995",
        "tle_line2": "2 66919  50.0079  95.9375 0007873 309.9709  50.0504 14.03724886  1642"
      },
      "geometry": {
        "type": "Point",
        "coordinates": [
          56.365992537964885,
          -36.001939094104934
        ]
      }
    }
  ]
}